[
  {
    "name": "STARLINK-32142",
    "noradId": "60291",
    "line1": "1 60291U 24132P   26170.64237523 -.00010913  00000+0 -35819-3 0  9992",
    "line2": "2 60291  53.1596 298.5962 0001860  47.6573 312.4586 15.30079609107172"
  },
  {
    "name": "STARLINK-32149",
    "noradId": "60292",
    "line1": "1 60292U 24132Q   26171.37368476 -.00001400  00000+0 -33364-4 0  9991",
    "line2": "2 60292  53.1609 295.3433 0000903  83.2001 276.9103 15.31697438107283"
  },
  {
    "name": "STARLINK-32159",
    "noradId": "60293",
    "line1": "1 60293U 24132R   26170.64017348  .00005345  00000+0  19261-3 0  9999",
    "line2": "2 60293  53.1601 298.5822 0001485 122.6407 237.4737 15.30174854107171"
  },
  {
    "name": "STARLINK-32150",
    "noradId": "60294",
    "line1": "1 60294U 24132S   26171.37835162 -.00001913  00000+0 -49899-4 0  9993",
    "line2": "2 60294  53.1605 295.3718 0001086 118.2996 241.8115 15.31699584107280"
  },
  {
    "name": "STARLINK-32126",
    "noradId": "60295",
    "line1": "1 60295U 24132T   26170.64658719  .00000321  00000+0  22104-4 0  9994",
    "line2": "2 60295  53.1628 298.6278 0001211  94.2208 265.8932 15.31705303107170"
  },
  {
    "name": "STARLINK-32143",
    "noradId": "60296",
    "line1": "1 60296U 24132U   26170.63724847  .00000333  00000+0  22480-4 0  9990",
    "line2": "2 60296  53.1609 298.5691 0001096  82.9251 277.1875 15.31708417107172"
  },
  {
    "name": "STARLINK-32034",
    "noradId": "60297",
    "line1": "1 60297U 24132V   26171.34066904 -.00000354  00000+0  36565-6 0  9998",
    "line2": "2 60297  53.1611 295.1372 0001234  93.7787 266.3355 15.31694054107289"
  },
  {
    "name": "STARLINK-32124",
    "noradId": "60298",
    "line1": "1 60298U 24132W   26170.63259638  .00000814  00000+0  38003-4 0  9995",
    "line2": "2 60298  53.1604 298.5419 0001182  78.0769 282.0365 15.31692826107178"
  },
  {
    "name": "STARLINK-32151",
    "noradId": "60299",
    "line1": "1 60299U 24132X   26171.40854963  .00001691  00000+0  69212-4 0  9994",
    "line2": "2 60299  53.1612 266.8629 0001227  69.0838 291.0294 15.30204770107689"
  },
  {
    "name": "STARLINK-32134",
    "noradId": "60300",
    "line1": "1 60300U 24132Y   26170.73080887  .00000415  00000+0  26137-4 0  9990",
    "line2": "2 60300  53.1600 298.4382 0001211 122.1124 237.9995 15.30198176107182"
  },
  {
    "name": "STARLINK-11147 [DTC]",
    "noradId": "60301",
    "line1": "1 60301U 24133A   26170.76751144  .00001273  00000+0  15360-4 0  9995",
    "line2": "2 60301  53.1595   3.2351 0000834  88.1858 271.9255 15.69711533109762"
  },
  {
    "name": "STARLINK-11128 [DTC]",
    "noradId": "60302",
    "line1": "1 60302U 24133B   26170.95361108  .00000970  00000+0  12864-4 0  9993",
    "line2": "2 60302  53.1594   2.2580 0001013  74.4877 285.6253 15.69715301109794"
  },
  {
    "name": "STARLINK-11227 [DTC]",
    "noradId": "60303",
    "line1": "1 60303U 24133C   26170.82137276 -.00000672  00000+0 -69503-6 0  9992",
    "line2": "2 60303  53.1588   2.8540 0000769  77.6188 282.4916 15.69710139109859"
  },
  {
    "name": "STARLINK-11224 [DTC]",
    "noradId": "60304",
    "line1": "1 60304U 24133D   26170.94379955 -.00000076  00000+0  42271-5 0  9997",
    "line2": "2 60304  53.1590   2.1928 0000859  79.4225 280.6890 15.69718881109873"
  },
  {
    "name": "STARLINK-11115 [DTC]",
    "noradId": "60305",
    "line1": "1 60305U 24133E   26170.81156079 -.00000517  00000+0  58442-6 0  9992",
    "line2": "2 60305  53.1596   2.7864 0000840 105.7175 254.3936 15.69710040109779"
  },
  {
    "name": "STARLINK-11109 [DTC]",
    "noradId": "60306",
    "line1": "1 60306U 24133F   26170.93398455 -.00013710  00000+0 -10818-3 0  9994",
    "line2": "2 60306  53.1596   2.1251 0000524 113.3268 246.7805 15.69778917109790"
  },
  {
    "name": "STARLINK-11223 [DTC]",
    "noradId": "60307",
    "line1": "1 60307U 24133G   26170.92417937  .00000275  00000+0  71275-5 0  9997",
    "line2": "2 60307  53.1603   2.0622 0001092  68.9313 291.1821 15.69715896109797"
  },
  {
    "name": "STARLINK-11192 [DTC]",
    "noradId": "60308",
    "line1": "1 60308U 24133H   26170.80175833  .00000227  00000+0  67291-5 0  9991",
    "line2": "2 60308  53.1589   2.7231 0001047  80.2582 279.8554 15.69704292109771"
  },
  {
    "name": "STARLINK-11213 [DTC]",
    "noradId": "60309",
    "line1": "1 60309U 24133J   26170.79193672  .00001221  00000+0  14937-4 0  9994",
    "line2": "2 60309  53.1601   2.6562 0001129  61.5661 298.5470 15.69708322109777"
  },
  {
    "name": "STARLINK-11200 [DTC]",
    "noradId": "60310",
    "line1": "1 60310U 24133K   26170.78703420  .00000794  00000+0  11413-4 0  9993",
    "line2": "2 60310  53.1593   2.6229 0000959  61.8104 298.3010 15.69709995109779"
  },
  {
    "name": "STARLINK-11206 [DTC]",
    "noradId": "60312",
    "line1": "1 60312U 24133M   26170.84098974 -.00000080  00000+0  41912-5 0  9990",
    "line2": "2 60312  53.1588   2.9767 0000761  89.9107 270.1998 15.69714861109771"
  },
  {
    "name": "STARLINK-11205 [DTC]",
    "noradId": "60313",
    "line1": "1 60313U 24133N   26170.83608678  .00000177  00000+0  63187-5 0  9992",
    "line2": "2 60313  53.1598   2.9439 0000973  81.1283 278.9846 15.69712316109774"
  },
  {
    "name": "STARLINK-32191",
    "noradId": "60314",
    "line1": "1 60314U 24133P   26171.30727909 -.00000157  00000+0  68215-5 0  9991",
    "line2": "2 60314  53.1598 180.2593 0001172  79.7780 280.3353 15.30201646107352"
  },
  {
    "name": "STARLINK-32194",
    "noradId": "60315",
    "line1": "1 60315U 24133Q   26171.32186529  .00025693  00000+0  87139-3 0  9996",
    "line2": "2 60315  53.1602 180.3579 0000681  38.2143 321.8906 15.30393857107352"
  },
  {
    "name": "STARLINK-32192",
    "noradId": "60316",
    "line1": "1 60316U 24133R   26171.28510109  .00002303  00000+0  89833-4 0  9994",
    "line2": "2 60316  53.1595 180.1271 0001362  84.6546 275.4610 15.30205244107448"
  },
  {
    "name": "STARLINK-32189",
    "noradId": "60317",
    "line1": "1 60317U 24133S   26171.31995659  .00029020  00000+0  99309-3 0  9999",
    "line2": "2 60317  53.1596 180.3422 0001816  40.4529 319.6607 15.30036394107440"
  },
  {
    "name": "STARLINK-32190",
    "noradId": "60318",
    "line1": "1 60318U 24133T   26171.44107326  .00001279  00000+0  55321-4 0  9993",
    "line2": "2 60318  53.1594 179.6742 0001262  98.5210 261.5933 15.30196414107370"
  },
  {
    "name": "STARLINK-32182",
    "noradId": "60319",
    "line1": "1 60319U 24133U   26171.31947935  .00007797  00000+0  27292-3 0  9994",
    "line2": "2 60319  53.1568 180.3424 0001036  57.3397 302.7704 15.30460724107356"
  },
  {
    "name": "STARLINK-32199",
    "noradId": "60320",
    "line1": "1 60320U 24133V   26171.31362326 -.00001094  00000+0 -24825-4 0  9997",
    "line2": "2 60320  53.1595 180.3014 0001141  90.5671 269.5460 15.30186242107353"
  },
  {
    "name": "STARLINK-32198",
    "noradId": "60321",
    "line1": "1 60321U 24133W   26171.41668980  .00048971  00000+0  14532-2 0  9999",
    "line2": "2 60321  53.1596 179.8812 0001546  71.6334 108.5492 15.34352797  5896"
  }
]