OBJECT_NAME,OBJECT_ID,EPOCH,MEAN_MOTION,ECCENTRICITY,INCLINATION,RA_OF_ASC_NODE,ARG_OF_PERICENTER,MEAN_ANOMALY,EPHEMERIS_TYPE,CLASSIFICATION_TYPE,NORAD_CAT_ID,ELEMENT_SET_NO,REV_AT_EPOCH,BSTAR,MEAN_MOTION_DOT,MEAN_MOTION_DDOT
STARLINK-32142,2024-132P,2026-06-19T15:25:01.219872,15.30079609,.00018605,53.1596,298.5962,47.6573,312.4586,0,U,60291,999,10717,-.35819494E-3,-.10913E-3,0
STARLINK-32149,2024-132Q,2026-06-20T08:58:06.363264,15.31697438,.0000903,53.1609,295.3433,83.2001,276.9103,0,U,60292,999,10728,-.33364E-4,-.14E-4,0
STARLINK-32159,2024-132R,2026-06-19T15:21:50.988672,15.30174854,.00014858,53.1601,298.5822,122.6407,237.4737,0,U,60293,999,10717,.19260905E-3,.5345E-4,0
STARLINK-32150,2024-132S,2026-06-20T09:04:49.579968,15.31699584,.0001086,53.1605,295.3718,118.2996,241.8115,0,U,60294,999,10728,-.49899E-4,-.1913E-4,0
STARLINK-32126,2024-132T,2026-06-19T15:31:05.133216,15.31705303,.00012111,53.1628,298.6278,94.2208,265.8932,0,U,60295,999,10717,.22103714E-4,.321E-5,0
STARLINK-32143,2024-132U,2026-06-19T15:17:38.267808,15.31708417,.00010964,53.1609,298.5691,82.9251,277.1875,0,U,60296,999,10717,.22479655E-4,.333E-5,0
STARLINK-32034,2024-132V,2026-06-20T08:10:33.805056,15.31694054,.0001234,53.1611,295.1372,93.7787,266.3355,0,U,60297,999,10728,.36565E-6,-.354E-5,0
STARLINK-32124,2024-132W,2026-06-19T15:10:56.327232,15.31692826,.00011823,53.1604,298.5419,78.0769,282.0365,0,U,60298,999,10717,.38003263E-4,.814E-5,0
STARLINK-32151,2024-132X,2026-06-20T09:48:18.688032,15.30204770,.0001227,53.1612,266.8629,69.0838,291.0294,0,U,60299,999,10768,.69212E-4,.1691E-4,0
STARLINK-32134,2024-132Y,2026-06-19T17:32:21.886368,15.30198176,.00012115,53.1600,298.4382,122.1124,237.9995,0,U,60300,999,10718,.26136524E-4,.415E-5,0
STARLINK-11147 [DTC],2024-133A,2026-06-19T18:25:12.988416,15.69711533,.00008343,53.1595,3.2351,88.1858,271.9255,0,U,60301,999,10976,.15360152E-4,.1273E-4,0
STARLINK-11128 [DTC],2024-133B,2026-06-19T22:53:11.997312,15.69715301,.00010134,53.1594,2.2580,74.4877,285.6253,0,U,60302,999,10979,.12863844E-4,.97E-5,0
STARLINK-11227 [DTC],2024-133C,2026-06-19T19:42:46.606464,15.69710139,.00007699,53.1588,2.8540,77.6188,282.4916,0,U,60303,999,10985,-.695029E-6,-.672E-5,0
STARLINK-11224 [DTC],2024-133D,2026-06-19T22:39:04.281120,15.69718881,.00008599,53.1590,2.1928,79.4225,280.6890,0,U,60304,999,10987,.4227072E-5,-.76E-6,0
STARLINK-11115 [DTC],2024-133E,2026-06-19T19:28:38.852256,15.69710040,.000084,53.1596,2.7864,105.7175,254.3936,0,U,60305,999,10977,.58442E-6,-.517E-5,0
STARLINK-11109 [DTC],2024-133F,2026-06-19T22:24:56.265120,15.69778917,.0000524,53.1596,2.1251,113.3268,246.7805,0,U,60306,999,10979,-.10818393E-3,-.1371E-3,0
STARLINK-11223 [DTC],2024-133G,2026-06-19T22:10:49.097568,15.69715896,.00010923,53.1603,2.0622,68.9313,291.1821,0,U,60307,999,10979,.7127503E-5,.275E-5,0
STARLINK-11192 [DTC],2024-133H,2026-06-19T19:14:31.919712,15.69704292,.00010477,53.1589,2.7231,80.2582,279.8554,0,U,60308,999,10977,.6729138E-5,.227E-5,0
STARLINK-11213 [DTC],2024-133J,2026-06-19T19:00:23.332608,15.69708322,.00011291,53.1601,2.6562,61.5661,298.5470,0,U,60309,999,10977,.14936593E-4,.1221E-4,0
STARLINK-11200 [DTC],2024-133K,2026-06-19T18:53:19.754880,15.69709995,.0000959,53.1593,2.6229,61.8104,298.3010,0,U,60310,999,10977,.11413366E-4,.794E-5,0
STARLINK-11206 [DTC],2024-133M,2026-06-19T20:11:01.513536,15.69714861,.00007611,53.1588,2.9767,89.9107,270.1998,0,U,60312,999,10977,.419116E-5,-.8E-6,0
STARLINK-11205 [DTC],2024-133N,2026-06-19T20:03:57.897792,15.69712316,.00009731,53.1598,2.9439,81.1283,278.9846,0,U,60313,999,10977,.6318731E-5,.177E-5,0
STARLINK-32191,2024-133P,2026-06-20T07:22:28.913376,15.30201646,.0001172,53.1598,180.2593,79.7780,280.3353,0,U,60314,999,10735,.68215E-5,-.157E-5,0
STARLINK-32194,2024-133Q,2026-06-20T07:43:29.161056,15.30393857,.0000681,53.1602,180.3579,38.2143,321.8906,0,U,60315,999,10735,.87139E-3,.25693E-3,0
STARLINK-32192,2024-133R,2026-06-20T06:50:32.734176,15.30205244,.0001362,53.1595,180.1271,84.6546,275.4610,0,U,60316,999,10744,.89833E-4,.2303E-4,0
STARLINK-32189,2024-133S,2026-06-20T07:40:44.249376,15.30036394,.0001816,53.1596,180.3422,40.4529,319.6607,0,U,60317,999,10744,.99309E-3,.2902E-3,0
STARLINK-32190,2024-133T,2026-06-20T10:35:08.729664,15.30196414,.0001262,53.1594,179.6742,98.5210,261.5933,0,U,60318,999,10737,.55321E-4,.1279E-4,0
STARLINK-32182,2024-133U,2026-06-20T07:40:03.015840,15.30460724,.0001036,53.1568,180.3424,57.3397,302.7704,0,U,60319,999,10735,.27292E-3,.7797E-4,0
STARLINK-32199,2024-133V,2026-06-20T07:31:37.049664,15.30186242,.0001141,53.1595,180.3014,90.5671,269.5460,0,U,60320,999,10735,-.24825E-4,-.1094E-4,0
STARLINK-32198,2024-133W,2026-06-20T10:00:01.998720,15.34352797,.0001546,53.1596,179.8812,71.6334,108.5492,0,U,60321,999,589,.14532E-2,.48971E-3,0
